STARLINK-36083          
1 66857U 25281K   26036.72491420  .00054195  00000+0  19624-2 0  9993
2 66857  43.0022 164.2787 0001518 271.0250  89.0428 15.27615531 11292
STARLINK-35118          
1 66858U 25281L   26036.71077774  .00051113  00000+0  18522-2 0  9998
2 66858  43.0010 164.1663 0001537 275.0218  85.0458 15.27614257 11294
STARLINK-35646          
1 66859U 25281M   26036.70692657  .00051730  00000+0  18748-2 0  9996
2 66859  42.9999 164.1354 0001494 273.3333  86.7348 15.27605442 11299
STARLINK-35987          
1 66860U 25281N   26036.36331044  .00041297  00000+0  15005-2 0  9990
2 66860  43.0002 165.8563 0004944 289.4420  70.5897 15.27600669 11247
STARLINK-35991          
1 66861U 25281P   26037.33509652  .00046676  00000+0  16923-2 0  9997
2 66861  42.9901 160.2377 0004159 152.2528 207.8546 15.27626217 11399
STARLINK-35974          
1 66862U 25281Q   26036.83384296  .00037126  00000+0  13501-2 0  9996
2 66862  43.0002 163.3688 0001176 278.1172  81.9546 15.27623333 11311
STARLINK-36134          
1 66863U 25281R   26037.32481324  .00034647  00000+0  12625-2 0  9993
2 66863  43.0001 160.1731 0001339 245.4273 114.6439 15.27584863 11392
STARLINK-36070          
1 66864U 25281S   26036.39540768  .00051516  00000+0  18668-2 0  9995
2 66864  42.9968 166.1018 0003227 291.9211  68.1297 15.27608285 11247
STARLINK-36117          
1 66865U 25281T   26037.33252567  .00042917  00000+0  15591-2 0  9995
2 66865  42.9958 160.2305 0000678 206.6571 153.4246 15.27599398 11392
STARLINK-36126          
1 66866U 25281U   26036.79929086  .00045405  00000+0  16465-2 0  9998
2 66866  43.0019 163.9771 0001887 283.2058  76.8583 15.27637111 11291
STARLINK-36101          
1 66867U 25281V   26036.73004480  .00050802  00000+0  18398-2 0  9999
2 66867  43.0007 164.3172 0001293 272.5341  87.5362 15.27636258 11280
STARLINK-36108          
1 66868U 25281W   26036.72619886  .00043634  00000+0  15841-2 0  9996
2 66868  43.0032 164.2865 0002090 277.9258  82.1356 15.27614809 11281
STARLINK-36092          
1 66869U 25281X   26036.71977289  .00042273  00000+0  15354-2 0  9997
2 66869  42.9997 164.2347 0001687 279.2611  80.8050 15.27611701 11288
STARLINK-36114          
1 66870U 25281Y   26036.71592137  .00029511  00000+0  10758-2 0  9997
2 66870  43.0001 164.2030 0001726 275.4971  84.5684 15.27635790 11286
STARLINK-36095          
1 66871U 25281Z   26036.77744704  .00026612  00000+0  97209-3 0  9999
2 66871  42.9987 163.8047 0001507 273.1167  86.9512 15.27613613 11286
STARLINK-36082          
1 66872U 25281AA  26036.70820688  .00041736  00000+0  15153-2 0  9990
2 66872  43.0032 164.1469 0001973 287.5200  72.5436 15.27629554 11283
