[{"OBJECT_NAME":"STARLINK-36083","OBJECT_ID":"2025-281K","EPOCH":"2026-02-05T17:23:52.586880","MEAN_MOTION":15.27615531,"ECCENTRICITY":0.00015181,"INCLINATION":43.0022,"RA_OF_ASC_NODE":164.2787,"ARG_OF_PERICENTER":271.025,"MEAN_ANOMALY":89.0428,"EPHEMERIS_TYPE":0,"CLASSIFICATION_TYPE":"U","NORAD_CAT_ID":66857,"ELEMENT_SET_NO":999,"REV_AT_EPOCH":1129,"BSTAR":0.0019623722,"MEAN_MOTION_DOT":0.00054195,"MEAN_MOTION_DDOT":0},{"OBJECT_NAME":"STARLINK-35118","OBJECT_ID":"2025-281L","EPOCH":"2026-02-05T17:03:31.196736","MEAN_MOTION":15.27614257,"ECCENTRICITY":0.0001537,"INCLINATION":43.001,"RA_OF_ASC_NODE":164.1663,"ARG_OF_PERICENTER":275.0218,"MEAN_ANOMALY":85.0458,"EPHEMERIS_TYPE":0,"CLASSIFICATION_TYPE":"U","NORAD_CAT_ID":66858,"ELEMENT_SET_NO":999,"REV_AT_EPOCH":1129,"BSTAR":0.0018522,"MEAN_MOTION_DOT":0.00051113,"MEAN_MOTION_DDOT":0},{"OBJECT_NAME":"STARLINK-35646","OBJECT_ID":"2025-281M","EPOCH":"2026-02-05T16:57:58.455648","MEAN_MOTION":15.27605442,"ECCENTRICITY":0.0001494,"INCLINATION":42.9999,"RA_OF_ASC_NODE":164.1354,"ARG_OF_PERICENTER":273.3333,"MEAN_ANOMALY":86.7348,"EPHEMERIS_TYPE":0,"CLASSIFICATION_TYPE":"U","NORAD_CAT_ID":66859,"ELEMENT_SET_NO":999,"REV_AT_EPOCH":1129,"BSTAR":0.0018748,"MEAN_MOTION_DOT":0.0005173,"MEAN_MOTION_DDOT":0},{"OBJECT_NAME":"STARLINK-35987","OBJECT_ID":"2025-281N","EPOCH":"2026-02-05T08:43:10.022016","MEAN_MOTION":15.27600669,"ECCENTRICITY":0.00049441,"INCLINATION":43.0002,"RA_OF_ASC_NODE":165.8563,"ARG_OF_PERICENTER":289.442,"MEAN_ANOMALY":70.5897,"EPHEMERIS_TYPE":0,"CLASSIFICATION_TYPE":"U","NORAD_CAT_ID":66860,"ELEMENT_SET_NO":999,"REV_AT_EPOCH":1124,"BSTAR":0.0015004852,"MEAN_MOTION_DOT":0.00041297,"MEAN_MOTION_DDOT":0},{"OBJECT_NAME":"STARLINK-35991","OBJECT_ID":"2025-281P","EPOCH":"2026-02-06T08:02:32.339328","MEAN_MOTION":15.27626217,"ECCENTRICITY":0.0004159,"INCLINATION":42.9901,"RA_OF_ASC_NODE":160.2377,"ARG_OF_PERICENTER":152.2528,"MEAN_ANOMALY":207.8546,"EPHEMERIS_TYPE":0,"CLASSIFICATION_TYPE":"U","NORAD_CAT_ID":66861,"ELEMENT_SET_NO":999,"REV_AT_EPOCH":1139,"BSTAR":0.0016922912,"MEAN_MOTION_DOT":0.00046676,"MEAN_MOTION_DDOT":0},{"OBJECT_NAME":"STARLINK-35974","OBJECT_ID":"2025-281Q","EPOCH":"2026-02-05T20:00:44.031744","MEAN_MOTION":15.27623333,"ECCENTRICITY":0.0001176,"INCLINATION":43.0002,"RA_OF_ASC_NODE":163.3688,"ARG_OF_PERICENTER":278.1172,"MEAN_ANOMALY":81.9546,"EPHEMERIS_TYPE":0,"CLASSIFICATION_TYPE":"U","NORAD_CAT_ID":66862,"ELEMENT_SET_NO":999,"REV_AT_EPOCH":1131,"BSTAR":0.0013501,"MEAN_MOTION_DOT":0.00037126,"MEAN_MOTION_DDOT":0},{"OBJECT_NAME":"STARLINK-36134","OBJECT_ID":"2025-281R","EPOCH":"2026-02-06T07:47:43.863936","MEAN_MOTION":15.27584863,"ECCENTRICITY":0.0001339,"INCLINATION":43.0001,"RA_OF_ASC_NODE":160.1731,"ARG_OF_PERICENTER":245.4273,"MEAN_ANOMALY":114.6439,"EPHEMERIS_TYPE":0,"CLASSIFICATION_TYPE":"U","NORAD_CAT_ID":66863,"ELEMENT_SET_NO":999,"REV_AT_EPOCH":1139,"BSTAR":0.0012624793,"MEAN_MOTION_DOT":0.00034647,"MEAN_MOTION_DDOT":0},{"OBJECT_NAME":"STARLINK-36070","OBJECT_ID":"2025-281S","EPOCH":"2026-02-05T09:29:23.223552","MEAN_MOTION":15.27608285,"ECCENTRICITY":0.00032273,"INCLINATION":42.9968,"RA_OF_ASC_NODE":166.1018,"ARG_OF_PERICENTER":291.9211,"MEAN_ANOMALY":68.1297,"EPHEMERIS_TYPE":0,"CLASSIFICATION_TYPE":"U","NORAD_CAT_ID":66864,"ELEMENT_SET_NO":999,"REV_AT_EPOCH":1124,"BSTAR":0.0018667558,"MEAN_MOTION_DOT":0.00051516,"MEAN_MOTION_DDOT":0},{"OBJECT_NAME":"STARLINK-36117","OBJECT_ID":"2025-281T","EPOCH":"2026-02-06T07:58:50.217888","MEAN_MOTION":15.27599398,"ECCENTRICITY":6.782e-5,"INCLINATION":42.9958,"RA_OF_ASC_NODE":160.2305,"ARG_OF_PERICENTER":206.6571,"MEAN_ANOMALY":153.4246,"EPHEMERIS_TYPE":0,"CLASSIFICATION_TYPE":"U","NORAD_CAT_ID":66865,"ELEMENT_SET_NO":999,"REV_AT_EPOCH":1139,"BSTAR":0.0015591115,"MEAN_MOTION_DOT":0.00042917,"MEAN_MOTION_DDOT":0},{"OBJECT_NAME":"STARLINK-36126","OBJECT_ID":"2025-281U","EPOCH":"2026-02-05T19:10:58.730304","MEAN_MOTION":15.27637111,"ECCENTRICITY":0.00018872,"INCLINATION":43.0019,"RA_OF_ASC_NODE":163.9771,"ARG_OF_PERICENTER":283.2058,"MEAN_ANOMALY":76.8583,"EPHEMERIS_TYPE":0,"CLASSIFICATION_TYPE":"U","NORAD_CAT_ID":66866,"ELEMENT_SET_NO":999,"REV_AT_EPOCH":1129,"BSTAR":0.0016464879,"MEAN_MOTION_DOT":0.00045405,"MEAN_MOTION_DDOT":0},{"OBJECT_NAME":"STARLINK-36101","OBJECT_ID":"2025-281V","EPOCH":"2026-02-05T17:31:15.870720","MEAN_MOTION":15.27636258,"ECCENTRICITY":0.00012936,"INCLINATION":43.0007,"RA_OF_ASC_NODE":164.3172,"ARG_OF_PERICENTER":272.5341,"MEAN_ANOMALY":87.5362,"EPHEMERIS_TYPE":0,"CLASSIFICATION_TYPE":"U","NORAD_CAT_ID":66867,"ELEMENT_SET_NO":999,"REV_AT_EPOCH":1128,"BSTAR":0.0018397896,"MEAN_MOTION_DOT":0.00050802,"MEAN_MOTION_DDOT":0},{"OBJECT_NAME":"STARLINK-36108","OBJECT_ID":"2025-281W","EPOCH":"2026-02-05T17:25:43.581504","MEAN_MOTION":15.27614809,"ECCENTRICITY":0.00020907,"INCLINATION":43.0032,"RA_OF_ASC_NODE":164.2865,"ARG_OF_PERICENTER":277.9258,"MEAN_ANOMALY":82.1356,"EPHEMERIS_TYPE":0,"CLASSIFICATION_TYPE":"U","NORAD_CAT_ID":66868,"ELEMENT_SET_NO":999,"REV_AT_EPOCH":1128,"BSTAR":0.001584093,"MEAN_MOTION_DOT":0.00043634,"MEAN_MOTION_DDOT":0},{"OBJECT_NAME":"STARLINK-36092","OBJECT_ID":"2025-281X","EPOCH":"2026-02-05T17:16:28.377696","MEAN_MOTION":15.27611701,"ECCENTRICITY":0.00016876,"INCLINATION":42.9997,"RA_OF_ASC_NODE":164.2347,"ARG_OF_PERICENTER":279.2611,"MEAN_ANOMALY":80.805,"EPHEMERIS_TYPE":0,"CLASSIFICATION_TYPE":"U","NORAD_CAT_ID":66869,"ELEMENT_SET_NO":999,"REV_AT_EPOCH":1128,"BSTAR":0.0015354212,"MEAN_MOTION_DOT":0.00042273,"MEAN_MOTION_DDOT":0},{"OBJECT_NAME":"STARLINK-36114","OBJECT_ID":"2025-281Y","EPOCH":"2026-02-05T17:10:55.606368","MEAN_MOTION":15.2763579,"ECCENTRICITY":0.0001726,"INCLINATION":43.0001,"RA_OF_ASC_NODE":164.203,"ARG_OF_PERICENTER":275.4971,"MEAN_ANOMALY":84.5684,"EPHEMERIS_TYPE":0,"CLASSIFICATION_TYPE":"U","NORAD_CAT_ID":66870,"ELEMENT_SET_NO":999,"REV_AT_EPOCH":1128,"BSTAR":0.0010758,"MEAN_MOTION_DOT":0.00029511,"MEAN_MOTION_DDOT":0},{"OBJECT_NAME":"STARLINK-36095","OBJECT_ID":"2025-281Z","EPOCH":"2026-02-05T18:39:31.424256","MEAN_MOTION":15.27613613,"ECCENTRICITY":0.0001507,"INCLINATION":42.9987,"RA_OF_ASC_NODE":163.8047,"ARG_OF_PERICENTER":273.1167,"MEAN_ANOMALY":86.9512,"EPHEMERIS_TYPE":0,"CLASSIFICATION_TYPE":"U","NORAD_CAT_ID":66871,"ELEMENT_SET_NO":999,"REV_AT_EPOCH":1128,"BSTAR":0.00097209492,"MEAN_MOTION_DOT":0.00026612,"MEAN_MOTION_DDOT":0},{"OBJECT_NAME":"STARLINK-36082","OBJECT_ID":"2025-281AA","EPOCH":"2026-02-05T16:59:49.074432","MEAN_MOTION":15.27629554,"ECCENTRICITY":0.0001973,"INCLINATION":43.0032,"RA_OF_ASC_NODE":164.1469,"ARG_OF_PERICENTER":287.52,"MEAN_ANOMALY":72.5436,"EPHEMERIS_TYPE":0,"CLASSIFICATION_TYPE":"U","NORAD_CAT_ID":66872,"ELEMENT_SET_NO":999,"REV_AT_EPOCH":1128,"BSTAR":0.0015153,"MEAN_MOTION_DOT":0.00041736,"MEAN_MOTION_DDOT":0}]
